NORAD_CAT_ID,OBJECT_NAME,OBJECT_TYPE,EPOCH,MEAN_MOTION,ECCENTRICITY,INCLINATION,RA_OF_ASC_NODE,ARG_OF_PERICENTER,MEAN_ANOMALY,BSTAR,MEAN_MOTION_DOT,MEAN_MOTION_DDOT,TLE_LINE0,TLE_LINE1,TLE_LINE2,SEMIMAJOR_AXIS,PERIOD,APOGEE,PERIGEE,DECAYED
53134.0,STARLINK-4150,PAYLOAD,2022-09-14 14:00:01,15.08819661,0.0001869,53.2139,124.8274,48.49,219.3744,0.002676,0.00042534,0.0,0 STARLINK-4150,1 53134U 22083C   22257.58334491  .00042534  00000-0  26760-2 0  9997,2 53134  53.2139 124.8274 0001869  48.4900 219.3744 15.08819661  9798,6917.943,95.439,541.101,538.515,0.0
53134.0,STARLINK-4150,PAYLOAD,2022-09-14 22:00:00,15.08854793,0.0002019,53.2138,123.3327,44.2816,235.1731,-0.0023185,-0.00037014,0.0,0 STARLINK-4150,1 53134U 22083C   22257.91667824 -.00037014  00000-0 -23185-2 0  9990,2 53134  53.2138 123.3327 0002019  44.2816 235.1731 15.08854793  1304,6917.835,95.437,541.097,538.303,0.0
53134.0,STARLINK-4150,PAYLOAD,2022-09-15 06:00:00,15.08849446,0.0001928,53.2135,121.8357,42.3054,248.7452,-0.0019686,-0.00031491,0.0,0 STARLINK-4150,1 53134U 22083C   22258.25001157 -.00031491  00000-0 -19686-2 0  9993,2 53134  53.2135 121.8357 0001928  42.3054 248.7452 15.08849446  9899,6917.852,95.437,541.05,538.383,0.0
53134.0,STARLINK-4150,PAYLOAD,2022-09-15 14:00:01,15.0882391,0.0001806,53.2136,120.338,48.519,254.1255,0.0025480999999999,0.00040481,0.0,0 STARLINK-4150,1 53134U 22083C   22258.58334491  .00040481  00000-0  25481-2 0  9996,2 53134  53.2136 120.3380 0001806  48.5190 254.1255 15.08823910  1302,6917.93,95.439,541.044,538.545,0.0
53134.0,STARLINK-4150,PAYLOAD,2022-09-15 22:00:00,15.08844106,0.0001983,53.2135,118.8434,44.143,270.097,0.00015165,2.126e-05,0.0,0 STARLINK-4150,1 53134U 22083C   22258.91667824  .00002126  00000-0  15165-3 0  9995,2 53134  53.2135 118.8434 0001983  44.1430 270.0970 15.08844106  9992,6917.868,95.437,541.105,538.361,0.0
53134.0,STARLINK-4150,PAYLOAD,2022-09-16 14:00:01,15.08818154,0.0001766,53.2135,115.8487,47.6107,289.8256,0.0021828,0.00034602,0.0,0 STARLINK-4150,1 53134U 22083C   22259.58334491  .00034602  00000-0  21828-2 0  9996,2 53134  53.2135 115.8487 0001766  47.6107 289.8256 15.08818154  1301,6917.946999999999,95.439,541.034,538.59,0.0
53134.0,STARLINK-4150,PAYLOAD,2022-09-16 22:00:00,15.08830889,0.0001991,53.2134,114.3541,43.5034,305.5191,0.00029842,4.463e-05,0.0,0 STARLINK-4150,1 53134U 22083C   22259.91667824  .00004463  00000-0  29842-3 0  9999,2 53134  53.2134 114.3541 0001991  43.5034 305.5191 15.08830889  1302,6917.908,95.438,541.151,538.396,0.0
53134.0,STARLINK-4150,PAYLOAD,2022-09-17 14:00:01,15.08814386,0.000195,53.2136,111.3594,50.8582,321.3409,0.0018534,0.00029312,0.0,0 STARLINK-4150,1 53134U 22083C   22260.58334491  .00029312  00000-0  18534-2 0  9990,2 53134  53.2136 111.3594 0001950  50.8582 321.3409 15.08814386  1305,6917.959,95.439,541.173,538.475,0.0
53134.0,STARLINK-4150,PAYLOAD,2022-09-17 22:00:00,15.08820824,0.0002159,53.2137,109.8648,46.4913,337.2852,0.00056427,8.699e-05,0.0,0 STARLINK-4150,1 53134U 22083C   22260.91667824  .00008699  00000-0  56427-3 0  9995,2 53134  53.2137 109.8648 0002159  46.4913 337.2852 15.08820824  1301,6917.939,95.439,541.298,538.31,0.0
53134.0,STARLINK-4150,PAYLOAD,2022-09-18 06:00:00,15.08848559,0.0002088,53.2137,108.3673,46.4636,348.8878,-0.0017764,-0.00028456,0.0,0 STARLINK-4150,1 53134U 22083C   22261.25001157 -.00028456  00000-0 -17764-2 0  9999,2 53134  53.2137 108.3673 0002088  46.4636 348.8878 15.08848559 10352,6917.854,95.437,541.164,538.275,0.0
53134.0,STARLINK-4150,PAYLOAD,2022-09-18 14:00:01,15.08838319,0.0002044999999999,53.2141,106.8701,51.4439,355.5645,0.0014757,0.00023275,0.0,0 STARLINK-4150,1 53134U 22083C   22261.58335648  .00023275  00000-0  14757-2 0  9991,2 53134  53.2141 106.8701 0002045  51.4439 355.5645 15.08838319  1307,6917.886,95.438,541.165,538.336,0.0
53134.0,STARLINK-4150,PAYLOAD,2022-09-18 22:00:00,15.08841772,0.0002231999999999,53.2142,105.3755,46.7788,11.7722,0.00074943,0.0001165999999999,0.0,0 STARLINK-4150,1 53134U 22083C   22261.91667824  .00011660  00000-0  74943-3 0  9991,2 53134  53.2142 105.3755 0002232  46.7788  11.7722 15.08841772 10453,6917.875,95.437,541.284,538.196,0.0
53134.0,STARLINK-4150,PAYLOAD,2022-09-19 14:00:01,15.08803909,0.0002045999999999,53.2164,102.3759,48.2481,33.5007,0.0029276,0.00046567,0.0,0 STARLINK-4150,1 53134U 22083C   22262.58334491  .00046567  00000-0  29276-2 0  9998,2 53134  53.2164 102.3759 0002046  48.2481  33.5007 15.08803909 10557,6917.991,95.44,541.271,538.44,0.0
53134.0,STARLINK-4150,PAYLOAD,2022-09-19 22:00:00,15.08842694,0.0002184,53.2147,100.8862,44.6803,48.6606,-0.0014832,-0.00023818,0.0,0 STARLINK-4150,1 53134U 22083C   22262.91667824 -.00023818  00000-0 -14832-2 0  9992,2 53134  53.2147 100.8862 0002184  44.6803  48.6606 15.08842694  1306,6917.871999999999,95.437,541.248,538.226,0.0
53134.0,STARLINK-4150,PAYLOAD,2022-09-20 06:00:00,15.08832757,0.0002012,53.2147,99.3886,44.9521,59.9826,-0.0012107,-0.00019501,0.0,0 STARLINK-4150,1 53134U 22083C   22263.25001157 -.00019501  00000-0 -12107-2 0  9998,2 53134  53.2147  99.3886 0002012  44.9521  59.9826 15.08832757 10650,6917.903,95.438,541.159,538.376,0.0
53134.0,STARLINK-4150,PAYLOAD,2022-09-20 14:00:01,15.08833485,0.0001972,53.215,97.8917,49.0349,67.4742,0.00055673,8.582e-05,0.0,0 STARLINK-4150,1 53134U 22083C   22263.58334491  .00008582  00000-0  55673-3 0  9995,2 53134  53.2150  97.8917 0001972  49.0349  67.4742 15.08833485  1302,6917.9,95.438,541.13,538.401,0.0
53134.0,STARLINK-4150,PAYLOAD,2022-09-20 22:00:01,15.08819071,0.0002151999999999,53.2149,96.397,44.1448,84.0197,0.0017852,0.00028222,0.0,0 STARLINK-4150,1 53134U 22083C   22263.91668981  .00028222  00000-0  17852-2 0  9995,2 53134  53.2149  96.3970 0002152  44.1448  84.0197 15.08819071 10753,6917.944,95.439,541.298,538.321,0.0
53134.0,STARLINK-4150,PAYLOAD,2022-09-21 22:00:00,15.08839127,0.000213,53.2148,91.9077,44.5846,118.3077,0.0010585999999999,0.00016599,0.0,0 STARLINK-4150,1 53134U 22083C   22264.91667824  .00016599  00000-0  10586-2 0  9992,2 53134  53.2148  91.9077 0002130  44.5846 118.3077 15.08839127  1306,6917.8830000000025,95.438,541.222,538.275,0.0
53134.0,STARLINK-4150,PAYLOAD,2022-09-22 14:00:01,15.08841268,0.0001888,53.2146,88.9133,49.7472,136.3305,-0.00055952,-9.182e-05,0.0,0 STARLINK-4150,1 53134U 22083C   22265.58334491 -.00009182  00000-0 -55952-3 0  9996,2 53134  53.2146  88.9133 0001888  49.7472 136.3305 15.08841268  1307,6917.877,95.437,541.048,538.435,0.0
53134.0,STARLINK-4150,PAYLOAD,2022-09-22 22:00:00,15.08814169,0.0002065,53.2143,87.4183,44.1789,153.4977,0.0025505,0.00040509,0.0,0 STARLINK-4150,1 53134U 22083C   22265.91667824  .00040509  00000-0  25505-2 0  9998,2 53134  53.2143  87.4183 0002065  44.1789 153.4977 15.08814169  1306,6917.959,95.439,541.253,538.396,0.0
53134.0,STARLINK-4150,PAYLOAD,2022-09-23 14:00:01,15.08856154,0.0001923,53.214,84.4239,51.1306,169.7188,-0.00080074,-0.00013015,0.0,0 STARLINK-4150,1 53134U 22083C   22266.58334491 -.00013015  00000-0 -80074-3 0  9990,2 53134  53.2140  84.4239 0001923  51.1306 169.7188 15.08856154  1301,6917.831,95.437,541.026,538.366,0.0
53134.0,STARLINK-4150,PAYLOAD,2022-09-23 22:00:00,15.08834781,0.0002069,53.2137,82.9287,44.9995,187.4651,0.0017108,0.00027041,0.0,0 STARLINK-4150,1 53134U 22083C   22266.91667824  .00027041  00000-0  17108-2 0  9995,2 53134  53.2137  82.9287 0002069  44.9995 187.4651 15.08834781  1303,6917.896,95.438,541.193,538.33,0.0
53134.0,STARLINK-4150,PAYLOAD,2022-09-24 14:00:01,15.08848705,0.0001892,53.2136,79.9342,49.1659,206.5503,-0.00073248,-0.0001193,0.0,0 STARLINK-4150,1 53134U 22083C   22267.58335648 -.00011930  00000-0 -73248-3 0  9995,2 53134  53.2136  79.9342 0001892  49.1659 206.5503 15.08848705  1307,6917.854,95.437,541.028,538.41,0.0
53134.0,STARLINK-4150,PAYLOAD,2022-09-24 22:00:00,15.08827315,0.0002034,53.2135,78.4391,42.7731,224.4843,0.0018869,0.0002986,0.0,0 STARLINK-4150,1 53134U 22083C   22267.91667824  .00029860  00000-0  18869-2 0  9992,2 53134  53.2135  78.4391 0002034  42.7731 224.4843 15.08827315  1303,6917.919,95.438,541.191,538.377,0.0
53134.0,STARLINK-4150,PAYLOAD,2022-09-25 14:00:01,15.08846728,0.000188,53.214,75.4446,46.1234,244.3102,-0.00083119,-0.00013495,0.0,0 STARLINK-4150,1 53134U 22083C   22268.58334491 -.00013495  00000-0 -83119-3 0  9997,2 53134  53.2140  75.4446 0001880  46.1234 244.3102 15.08846728  1309,6917.86,95.437,541.025,538.424,0.0
53134.0,STARLINK-4150,PAYLOAD,2022-09-25 22:00:01,15.08822801,0.0002031,53.214,73.9489,40.5288,261.5593,0.0017104,0.00027025,0.0,0 STARLINK-4150,1 53134U 22083C   22268.91668981  .00027025  00000-0  17104-2 0  9990,2 53134  53.2140  73.9489 0002031  40.5288 261.5593 15.08822801 11509,6917.933000000001,95.439,541.203,538.393,0.0
53134.0,STARLINK-4150,PAYLOAD,2022-09-26 10:00:00,15.08806549,0.0001839,53.2143,71.7022,45.339,94.0607,0.0020881999999999,0.00033072,0.0,0 STARLINK-4150,1 53134U 22083C   22269.41667824  .00033072  00000-0  20882-2 0  9997,2 53134  53.2143  71.7022 0001839  45.3390  94.0607 15.08806549 11587,6917.983,95.44,541.12,538.575,0.0
53134.0,STARLINK-4150,PAYLOAD,2022-09-26 14:00:01,15.08836707,0.0001909999999999,53.2145,70.9549,43.7168,281.4606,-0.001236,-0.00019904,0.0,0 STARLINK-4150,1 53134U 22083C   22269.58334491 -.00019904  00000-0 -12360-2 0  9998,2 53134  53.2145  70.9549 0001910  43.7168 281.4606 15.08836707  1308,6917.89,95.438,541.077,538.434,0.0
53134.0,STARLINK-4150,PAYLOAD,2022-09-26 22:00:00,15.08809627,0.0002069,53.2145,69.4596,38.8854,297.8791,0.0030761,0.00048968,0.0,0 STARLINK-4150,1 53134U 22083C   22269.91667824  .00048968  00000-0  30761-2 0  9999,2 53134  53.2145  69.4596 0002069  38.8854 297.8791 15.08809627  1303,6917.973000000001,95.439,541.27,538.4069999999998,0.0
